KUIPER-00104            
1 65142U 25171L   26008.83649174  .00003294  00000+0  49718-3 0  9991
2 65142  51.9028  62.2477 0004615 346.7612  13.3227 14.76659211 24037
KUIPER-00105            
1 65143U 25171M   26008.90529830 -.00002639  00000+0 -31706-3 0  9998
2 65143  51.9007  70.0165 0011112 271.4229  88.5460 14.79874939 23934
KUIPER-00106            
1 65144U 25171N   26008.42971874  .00008141  00000+0  72317-3 0  9990
2 65144  51.8946  68.7365 0008179 260.6102  99.3943 14.96879681 23913
KUIPER-00107            
1 65145U 25171P   26008.85649249  .00002657  00000+0  37906-3 0  9997
2 65145  51.9012  52.6689 0000833 119.0026 241.1020 14.79737736 24178
KUIPER-00108            
1 65146U 25171Q   26008.87697359  .00038160  00000+0  50123-2 0  9998
2 65146  51.9022  65.0866 0005782 286.0697  73.9628 14.79872521 24001
KUIPER-00109            
1 65147U 25171R   26008.44333304  .00003513  00000+0  48945-3 0  9993
2 65147  51.9027  61.9456 0011008 291.9472  68.0320 14.79937520 24006
KUIPER-00110            
1 65148U 25171S   26008.86883308  .00000539  00000+0  99812-4 0  9999
2 65148  51.9014  72.6664 0002126 338.0374  22.0497 14.79912733 23887
KUIPER-00111            
1 65149U 25171T   26008.89721206 -.00002375  00000+0 -28262-3 0  9993
2 65149  51.8975  77.4646 0007748 285.2171  74.7934 14.79880105 23820
